STARLINK-33932          
1 63775U 25091A   26166.83268576  .00013409  00000+0  49586-3 0  9992
2 63775  43.0068 218.1213 0002259 121.2519 238.8554 15.27582601 63953
STARLINK-33930          
1 63776U 25091B   26166.86736576  .00011435  00000+0  42412-3 0  9994
2 63776  43.0025 218.3874 0001483 277.6923  82.3760 15.27603402 63915
STARLINK-33911          
1 63777U 25091C   26166.43747406  .00014964  00000+0  55174-3 0  9991
2 63777  42.9998 213.3470 0001183 272.8030  87.2686 15.27607873 63932
STARLINK-33938          
1 63778U 25091D   26166.84939679  .00009793  00000+0  36498-3 0  9994
2 63778  42.9997 218.2458 0001290 261.5800  98.4906 15.27574156 64006
STARLINK-33881          
1 63779U 25091E   26166.87380005  .00011736  00000+0  43497-3 0  9998
2 63779  43.0055 218.4381 0003468 279.7436  80.3024 15.27603283 63910
STARLINK-33846          
1 63780U 25091F   26164.90190494  .00013424  00000+0  49587-3 0  9995
2 63780  43.0025 229.4300 0001533 259.8608 100.2071 15.27618547 63668
STARLINK-33883          
1 63781U 25091G   26166.85966554  .00010023  00000+0  37320-3 0  9994
2 63781  43.0040 218.3235 0001820 263.1298  96.9347 15.27584932 63917
STARLINK-33842          
1 63782U 25091H   26166.84553058  .00015370  00000+0  56681-3 0  9996
2 63782  42.9970 218.2156 0001919 272.2284  87.8348 15.27583435 64002
STARLINK-33892          
1 63783U 25091J   26166.84425463  .00016069  00000+0  59167-3 0  9993
2 63783  42.9978 218.2057 0001942 264.8378  95.2252 15.27608304 63917
STARLINK-33933          
1 63784U 25091K   26166.84520978  .00011943  00000+0  44279-3 0  9995
2 63784  43.0025 211.2614 0002007 271.3253  88.7369 15.27580722 64104
STARLINK-33923          
1 63786U 25091M   26166.85067639  .00010403  00000+0  38701-3 0  9991
2 63786  43.0053 218.2549 0000749 278.3567  81.7200 15.27582087 63862
STARLINK-33947          
1 63787U 25091N   26166.87252979  .00011957  00000+0  44335-3 0  9992
2 63787  42.9975 218.4234 0000519  70.1238 289.9669 15.27576440 63918
STARLINK-33882          
1 63788U 25091P   26166.84296109  .00015318  00000+0  56482-3 0  9994
2 63788  42.9957 218.1913 0001698 272.3879  87.6778 15.27589830 63906
STARLINK-33875          
1 63789U 25091Q   26166.83139894  .00012267  00000+0  45444-3 0  9997
2 63789  43.0022 218.1051 0000930 274.7349  85.3396 15.27588289 63910
STARLINK-33869          
1 63790U 25091R   26165.84417228  .00014373  00000+0  53063-3 0  9995
2 63790  42.9981 223.5925 0001961 283.9655  76.0979 15.27589360 63714
STARLINK-33935          
1 63791U 25091S   26166.86868591  .00012510  00000+0  46331-3 0  9993
2 63791  43.0031 218.3952 0001038 291.7596  68.3145 15.27583636 64025
STARLINK-33916          
1 63792U 25091T   26166.86481497  .00018847  00000+0  69297-3 0  9995
2 63792  43.0042 218.3604 0000660 271.0270  89.0506 15.27564577 63913
STARLINK-33925          
1 63793U 25091U   26166.82883175  .00013019  00000+0  48170-3 0  9994
2 63793  43.0010 218.0853 0000793 266.7783  93.2978 15.27585670 64029
STARLINK-33870          
1 63794U 25091V   26166.43008475  .00018009  00000+0  66223-3 0  9997
2 63794  43.0004 220.2536 0001163 265.2351  94.8368 15.27586066 63853
STARLINK-33867          
1 63795U 25091W   26166.85709543  .00013274  00000+0  49089-3 0  9998
2 63795  43.0017 218.3002 0002070 267.7301  92.3313 15.27589066 63917
STARLINK-33918          
1 63796U 25091X   26165.87759372  .00019108  00000+0  70146-3 0  9995
2 63796  43.0166 223.8514 0003179 267.4886  92.5602 15.27608152 63818
STARLINK-33712          
1 63797U 25091Y   26166.85276952  .00016073  00000+0  59220-3 0  9991
2 63797  42.9989 221.7916 0001616 270.3414  89.7252 15.27587455 63874
STARLINK-33827          
1 63798U 25091Z   26166.84681604  .00017427  00000+0  64111-3 0  9994
2 63798  42.9937 218.2200 0001748 271.4658  88.5993 15.27590028 63917
STARLINK-33899          
1 63799U 25091AA  26166.83911158  .00016835  00000+0  62043-3 0  9998
2 63799  42.9993 218.1606 0001234 272.9731  87.0979 15.27552286 64022
STARLINK-33900          
1 63800U 25091AB  26166.83525905  .00010706  00000+0  39805-3 0  9993
2 63800  43.0055 218.1333 0000453 236.9817 123.0992 15.27576537 64021
STARLINK-33975          
1 63802U 25091AC  26166.42880001  .00016614  00000+0  61177-3 0  9992
2 63802  43.0020 220.2425 0001031 269.7692  90.3041 15.27586192 63960
STARLINK-33951          
1 63803U 25091AD  26166.82625455  .00012785  00000+0  47310-3 0  9995
2 63803  42.9966 218.0607 0002340 279.5923  80.4664 15.27593204 63968
STARLINK-33909          
1 63804U 25092A   26165.22548078  .00014292  00000+0  52787-3 0  9994
2 63804  43.0034 347.7929 0001092 273.4252  86.6475 15.27579722 63377
STARLINK-34029          
1 63805U 25092B   26166.78961276  .00020545  00000+0  75341-3 0  9995
2 63805  43.0045 338.8853 0000260 258.4132 101.6690 15.27607336 63610
STARLINK-34102          
1 63806U 25092C   26166.78832965  .00019615  00000+0  72026-3 0  9991
2 63806  43.0075 338.8786 0000562 283.3273  76.7516 15.27587817 63662
