OBJECT_NAME,OBJECT_ID,EPOCH,MEAN_MOTION,ECCENTRICITY,INCLINATION,RA_OF_ASC_NODE,ARG_OF_PERICENTER,MEAN_ANOMALY,EPHEMERIS_TYPE,CLASSIFICATION_TYPE,NORAD_CAT_ID,ELEMENT_SET_NO,REV_AT_EPOCH,BSTAR,MEAN_MOTION_DOT,MEAN_MOTION_DDOT
STARLINK-33932,2025-091A,2026-06-15T19:59:04.049664,15.27582601,.00022592,43.0068,218.1213,121.2519,238.8554,0,U,63775,999,6395,.49586448E-3,.13409E-3,0
STARLINK-33930,2025-091B,2026-06-15T20:49:00.401664,15.27603402,.00014834,43.0025,218.3874,277.6923,82.3760,0,U,63776,999,6391,.42411569E-3,.11435E-3,0
STARLINK-33911,2025-091C,2026-06-15T10:29:57.758784,15.27607873,.00011836,42.9998,213.3470,272.8030,87.2686,0,U,63777,999,6393,.55174046E-3,.14964E-3,0
STARLINK-33938,2025-091D,2026-06-15T20:23:07.882656,15.27574156,.00012904,42.9997,218.2458,261.5800,98.4906,0,U,63778,999,6400,.36497765E-3,.9793E-4,0
STARLINK-33881,2025-091E,2026-06-15T20:58:16.324320,15.27603283,.00034683,43.0055,218.4381,279.7436,80.3024,0,U,63779,999,6391,.43497401E-3,.11736E-3,0
STARLINK-33846,2025-091F,2026-06-13T21:38:44.586816,15.27618547,.0001533,43.0025,229.4300,259.8608,100.2071,0,U,63780,999,6366,.49587E-3,.13424E-3,0
STARLINK-33883,2025-091G,2026-06-15T20:37:55.102656,15.27584932,.00018203,43.0040,218.3235,263.1298,96.9347,0,U,63781,999,6391,.37319722E-3,.10023E-3,0
STARLINK-33842,2025-091H,2026-06-15T20:17:33.842112,15.27583435,.00019198,42.9970,218.2156,272.2284,87.8348,0,U,63782,999,6400,.56681074E-3,.1537E-3,0
STARLINK-33892,2025-091J,2026-06-15T20:15:43.600032,15.27608304,.00019426,42.9978,218.2057,264.8378,95.2252,0,U,63783,999,6391,.59166736E-3,.16069E-3,0
STARLINK-33933,2025-091K,2026-06-15T20:17:06.124992,15.27580722,.00020072,43.0025,211.2614,271.3253,88.7369,0,U,63784,999,6410,.44279186E-3,.11943E-3,0
STARLINK-33923,2025-091M,2026-06-15T20:24:58.440096,15.27582087,.00007493,43.0053,218.2549,278.3567,81.7200,0,U,63786,999,6386,.38701E-3,.10403E-3,0
STARLINK-33947,2025-091N,2026-06-15T20:56:26.573856,15.27576440,.00005192,42.9975,218.4234,70.1238,289.9669,0,U,63787,999,6391,.44335404E-3,.11957E-3,0
STARLINK-33882,2025-091P,2026-06-15T20:13:51.838176,15.27589830,.00016984,42.9957,218.1913,272.3879,87.6778,0,U,63788,999,6390,.5648218E-3,.15318E-3,0
STARLINK-33875,2025-091Q,2026-06-15T19:57:12.868416,15.27588289,.00009301,43.0022,218.1051,274.7349,85.3396,0,U,63789,999,6391,.45443791E-3,.12267E-3,0
STARLINK-33869,2025-091R,2026-06-14T20:15:36.484992,15.27589360,.00019612,42.9981,223.5925,283.9655,76.0979,0,U,63790,999,6371,.53062932E-3,.14373E-3,0
STARLINK-33935,2025-091S,2026-06-15T20:50:54.462624,15.27583636,.00010389,43.0031,218.3952,291.7596,68.3145,0,U,63791,999,6402,.46331061E-3,.1251E-3,0
STARLINK-33916,2025-091T,2026-06-15T20:45:20.013408,15.27564577,.00006605,43.0042,218.3604,271.0270,89.0506,0,U,63792,999,6391,.69297432E-3,.18847E-3,0
STARLINK-33925,2025-091U,2026-06-15T19:53:31.063200,15.27585670,.0000793,43.0010,218.0853,266.7783,93.2978,0,U,63793,999,6402,.48170329E-3,.13019E-3,0
STARLINK-33870,2025-091V,2026-06-15T10:19:19.322400,15.27586066,.00011633,43.0004,220.2536,265.2351,94.8368,0,U,63794,999,6385,.66223065E-3,.18009E-3,0
STARLINK-33867,2025-091W,2026-06-15T20:34:13.045152,15.27589066,.00020708,43.0017,218.3002,267.7301,92.3313,0,U,63795,999,6391,.49089397E-3,.13274E-3,0
STARLINK-33918,2025-091X,2026-06-14T21:03:44.097408,15.27608152,.0003179,43.0166,223.8514,267.4886,92.5602,0,U,63796,999,6381,.70146E-3,.19108E-3,0
STARLINK-33712,2025-091Y,2026-06-15T20:27:59.286528,15.27587455,.00016164,42.9989,221.7916,270.3414,89.7252,0,U,63797,999,6387,.59219962E-3,.16073E-3,0
STARLINK-33827,2025-091Z,2026-06-15T20:19:24.905856,15.27590028,.0001748,42.9937,218.2200,271.4658,88.5993,0,U,63798,999,6391,.64111151E-3,.17427E-3,0
STARLINK-33899,2025-091AA,2026-06-15T20:08:19.240512,15.27552286,.0001234,42.9993,218.1606,272.9731,87.0979,0,U,63799,999,6402,.62042811E-3,.16835E-3,0
STARLINK-33900,2025-091AB,2026-06-15T20:02:46.381920,15.27576537,.00004533,43.0055,218.1333,236.9817,123.0992,0,U,63800,999,6402,.39804544E-3,.10706E-3,0
STARLINK-33975,2025-091AC,2026-06-15T10:17:28.320864,15.27586192,.00010314,43.0020,220.2425,269.7692,90.3041,0,U,63802,999,6396,.61177215E-3,.16614E-3,0
STARLINK-33951,2025-091AD,2026-06-15T19:49:48.393120,15.27593204,.00023403,42.9966,218.0607,279.5923,80.4664,0,U,63803,999,6396,.47309551E-3,.12785E-3,0
STARLINK-33909,2025-092A,2026-06-14T05:24:41.539392,15.27579722,.0001092,43.0034,347.7929,273.4252,86.6475,0,U,63804,999,6337,.52787E-3,.14292E-3,0
STARLINK-34029,2025-092B,2026-06-15T18:57:02.542464,15.27607336,.00002606,43.0045,338.8853,258.4132,101.6690,0,U,63805,999,6361,.75340664E-3,.20545E-3,0
STARLINK-34102,2025-092C,2026-06-15T18:55:11.681760,15.27587817,.00005621,43.0075,338.8786,283.3273,76.7516,0,U,63806,999,6366,.72025945E-3,.19615E-3,0
